{"fetched_at":"2026-03-28T16:33:49Z","count":6709,"tles":[{"name":"TELEOS-2","line1":"1 56310U 23057C   26086.24162853  .00000792  00000+0  89486-5 0  9992","line2":"2 56310   9.9890  80.8632 0000833 221.6620 138.3530 14.96373585160508","category":"Other"}]}