{
  "norad_id": 56310,
  "name": "TELEOS-2",
  "history": [
    {
      "epoch": "2026-03-27T05:47:56.704992",
      "apogee_km": 578.6919892965561,
      "perigee_km": 577.5330781242392,
      "latitude_deg": -0.6323043327349501,
      "longitude_deg": 98.19633888010867,
      "semi_major_axis_km": 6956.249533710397,
      "eccentricity": 8.33e-05,
      "inclination_deg": 9.989,
      "raan_deg": 80.8632,
      "arg_perigee_deg": 221.662,
      "mean_anomaly_deg": 138.353,
      "mean_motion_rev_day": 14.96373585
    }
  ]
}